start=new Date('2022-11-14T00:00:00.000Z').valueOf();
sats=[{"CLASSIFICATION_TYPE":"U","SITE":"AFWTR","MEAN_MOTION":"15.01273557","OBJECT_ID":"2022-099AX","DECAY_DATE":null,"MEAN_ELEMENT_THEORY":"SGP4","NORAD_CAT_ID":"53510","TIME_SYSTEM":"UTC","TLE_LINE2":"2 53510  97.6560  76.9593 0001972  33.6145 326.5204 15.01273557 14169","BSTAR":"0.00004194900000","MEAN_MOTION_DOT":"0.00000480","MEAN_MOTION_DDOT":"0.0000000000000","PERIAPSIS":"561.601","PERIOD":"95.919","EPHEMERIS_TYPE":"0","ECCENTRICITY":"0.00019720","INCLINATION":"97.6560","LAUNCH_DATE":"2022-08-12","SEMIMAJOR_AXIS":"6941.105","CENTER_NAME":"EARTH","APOAPSIS":"564.339","ELEMENT_SET_NO":"999","TLE_LINE1":"1 53510U 22099AX  22317.78944345  .00000480  00000-0  41949-4 0  9998","RA_OF_ASC_NODE":"76.9593","GP_ID":"217695113","REV_AT_EPOCH":"1416","ARG_OF_PERICENTER":"33.6145","EPOCH":"2022-11-13T18:56:47.914080","OBJECT_NAME":"STARLINK-4441","RCS_SIZE":"LARGE","OBJECT_TYPE":"PAYLOAD","MEAN_ANOMALY":"326.5204","COUNTRY_CODE":"US","REF_FRAME":"TEME","FILE":"3653957"},{"CLASSIFICATION_TYPE":"U","OBJECT_ID":"2022-101A","SITE":"AFETR","MEAN_MOTION":"15.08838181","DECAY_DATE":null,"TLE_LINE2":"2 53527  53.2150 114.8800 0001493  63.2738 296.8407 15.08838181 13191","BSTAR":"-0.00006037000000","MEAN_ELEMENT_THEORY":"SGP4","TIME_SYSTEM":"UTC","NORAD_CAT_ID":"53527","MEAN_MOTION_DDOT":"0.0000000000000","PERIAPSIS":"538.718","MEAN_MOTION_DOT":"-0.00001249","PERIOD":"95.438","EPHEMERIS_TYPE":"0","SEMIMAJOR_AXIS":"6917.886","LAUNCH_DATE":"2022-08-19","ECCENTRICITY":"0.00014930","INCLINATION":"53.2150","CENTER_NAME":"EARTH","APOAPSIS":"540.784","ELEMENT_SET_NO":"999","REV_AT_EPOCH":"1319","TLE_LINE1":"1 53527U 22101A   22317.71502722 -.00001249  00000-0 -60370-4 0  9997","RA_OF_ASC_NODE":"114.8800","GP_ID":"217694701","ARG_OF_PERICENTER":"63.2738","EPOCH":"2022-11-13T17:09:38.351808","OBJECT_NAME":"STARLINK-4511","RCS_SIZE":"LARGE","OBJECT_TYPE":"PAYLOAD","MEAN_ANOMALY":"296.8407","REF_FRAME":"TEME","FILE":"3653957","COUNTRY_CODE":"US"},{"REF_FRAME":"TEME","FILE":"3653957","COUNTRY_CODE":"US","EPOCH":"2022-11-13T17:14:56.835168","OBJECT_NAME":"STARLINK-4503","RCS_SIZE":"LARGE","OBJECT_TYPE":"PAYLOAD","MEAN_ANOMALY":"304.2034","REV_AT_EPOCH":"1319","TLE_LINE1":"1 53528U 22101B   22317.71871337  .00001097  00000-0  87004-4 0  9991","GP_ID":"217694870","RA_OF_ASC_NODE":"114.8652","ARG_OF_PERICENTER":"55.9122","CENTER_NAME":"EARTH","APOAPSIS":"540.932","ELEMENT_SET_NO":"999","EPHEMERIS_TYPE":"0","LAUNCH_DATE":"2022-08-19","SEMIMAJOR_AXIS":"6917.872","INCLINATION":"53.2173","ECCENTRICITY":"0.00017280","MEAN_MOTION_DDOT":"0.0000000000000","PERIAPSIS":"538.541","MEAN_MOTION_DOT":"0.00001097","PERIOD":"95.437","DECAY_DATE":null,"TLE_LINE2":"2 53528  53.2173 114.8652 0001728  55.9122 304.2034 15.08842781 13199","BSTAR":"0.00008700400000","MEAN_ELEMENT_THEORY":"SGP4","TIME_SYSTEM":"UTC","NORAD_CAT_ID":"53528","CLASSIFICATION_TYPE":"U","OBJECT_ID":"2022-101B","SITE":"AFETR","MEAN_MOTION":"15.08842781"},{"CENTER_NAME":"EARTH","APOAPSIS":"540.826","ELEMENT_SET_NO":"999","REV_AT_EPOCH":"1319","TLE_LINE1":"1 53529U 22101C   22317.71134527 -.00000833  00000-0 -34260-4 0  9990","GP_ID":"217695886","RA_OF_ASC_NODE":"114.8958","ARG_OF_PERICENTER":"68.8436","EPOCH":"2022-11-13T17:04:20.231328","OBJECT_NAME":"STARLINK-4478","RCS_SIZE":"LARGE","OBJECT_TYPE":"PAYLOAD","MEAN_ANOMALY":"291.2725","REF_FRAME":"TEME","FILE":"3653957","COUNTRY_CODE":"US","CLASSIFICATION_TYPE":"U","OBJECT_ID":"2022-101C","SITE":"AFETR","MEAN_MOTION":"15.08843953","DECAY_DATE":null,"TLE_LINE2":"2 53529  53.2165 114.8958 0001579  68.8436 291.2725 15.08843953 13199","BSTAR":"-0.00003426000000","MEAN_ELEMENT_THEORY":"SGP4","NORAD_CAT_ID":"53529","TIME_SYSTEM":"UTC","MEAN_MOTION_DDOT":"0.0000000000000","PERIAPSIS":"538.641","MEAN_MOTION_DOT":"-0.00000833","PERIOD":"95.437","EPHEMERIS_TYPE":"0","SEMIMAJOR_AXIS":"6917.868","LAUNCH_DATE":"2022-08-19","ECCENTRICITY":"0.00015790","INCLINATION":"53.2165"},{"COUNTRY_CODE":"US","REF_FRAME":"TEME","FILE":"3653957","EPOCH":"2022-11-13T16:55:06.977568","OBJECT_NAME":"STARLINK-4482","RCS_SIZE":"LARGE","OBJECT_TYPE":"PAYLOAD","MEAN_ANOMALY":"301.8809","TLE_LINE1":"1 53530U 22101D   22317.70494187  .00002427  00000-0  17048-3 0  9995","GP_ID":"217695718","RA_OF_ASC_NODE":"114.9285","REV_AT_EPOCH":"1319","ARG_OF_PERICENTER":"58.2341","CENTER_NAME":"EARTH","APOAPSIS":"540.855","ELEMENT_SET_NO":"999","EPHEMERIS_TYPE":"0","INCLINATION":"53.2155","ECCENTRICITY":"0.00016230","SEMIMAJOR_AXIS":"6917.867","LAUNCH_DATE":"2022-08-19","MEAN_MOTION_DOT":"0.00002427","MEAN_MOTION_DDOT":"0.0000000000000","PERIAPSIS":"538.609","PERIOD":"95.437","DECAY_DATE":null,"MEAN_ELEMENT_THEORY":"SGP4","NORAD_CAT_ID":"53530","TIME_SYSTEM":"UTC","TLE_LINE2":"2 53530  53.2155 114.9285 0001623  58.2341 301.8809 15.08844359 13194","BSTAR":"0.00017048000000","CLASSIFICATION_TYPE":"U","SITE":"AFETR","MEAN_MOTION":"15.08844359","OBJECT_ID":"2022-101D"},{"COUNTRY_CODE":"US","REF_FRAME":"TEME","FILE":"3653957","EPOCH":"2022-11-13T16:59:02.397696","OBJECT_NAME":"STARLINK-4487","RCS_SIZE":"LARGE","OBJECT_TYPE":"PAYLOAD","MEAN_ANOMALY":"307.9123","TLE_LINE1":"1 53531U 22101E   22317.70766664 -.00000216  00000-0  45482-5 0  9998","GP_ID":"217695115","RA_OF_ASC_NODE":"114.9201","REV_AT_EPOCH":"1319","ARG_OF_PERICENTER":"52.2054","CENTER_NAME":"EARTH","APOAPSIS":"541.136","ELEMENT_SET_NO":"999","EPHEMERIS_TYPE":"0","ECCENTRICITY":"0.00020420","INCLINATION":"53.2160","LAUNCH_DATE":"2022-08-19","SEMIMAJOR_AXIS":"6917.858","MEAN_MOTION_DOT":"-0.00000216","MEAN_MOTION_DDOT":"0.0000000000000","PERIAPSIS":"538.311","PERIOD":"95.437","DECAY_DATE":null,"MEAN_ELEMENT_THEORY":"SGP4","TIME_SYSTEM":"UTC","NORAD_CAT_ID":"53531","TLE_LINE2":"2 53531  53.2160 114.9201 0002042  52.2054 307.9123 15.08847244 13192","BSTAR":"0.00000454820000","CLASSIFICATION_TYPE":"U","SITE":"AFETR","MEAN_MOTION":"15.08847244","OBJECT_ID":"2022-101E"},{"APOAPSIS":"540.887","CENTER_NAME":"EARTH","ELEMENT_SET_NO":"999","RA_OF_ASC_NODE":"115.0622","GP_ID":"217695284","TLE_LINE1":"1 53532U 22101F   22317.67455009 -.00001195  00000-0 -57027-4 0  9998","REV_AT_EPOCH":"1319","ARG_OF_PERICENTER":"55.3702","OBJECT_NAME":"STARLINK-4483","EPOCH":"2022-11-13T16:11:21.127776","OBJECT_TYPE":"PAYLOAD","MEAN_ANOMALY":"304.7444","RCS_SIZE":"LARGE","COUNTRY_CODE":"US","FILE":"3653957","REF_FRAME":"TEME","CLASSIFICATION_TYPE":"U","MEAN_MOTION":"15.08836814","SITE":"AFETR","OBJECT_ID":"2022-101F","DECAY_DATE":null,"TIME_SYSTEM":"UTC","NORAD_CAT_ID":"53532","MEAN_ELEMENT_THEORY":"SGP4","BSTAR":"-0.00005702700000","TLE_LINE2":"2 53532  53.2198 115.0622 0001636  55.3702 304.7444 15.08836814 13197","MEAN_MOTION_DOT":"-0.00001195","PERIAPSIS":"538.623","MEAN_MOTION_DDOT":"0.0000000000000","PERIOD":"95.438","EPHEMERIS_TYPE":"0","ECCENTRICITY":"0.00016360","INCLINATION":"53.2198","SEMIMAJOR_AXIS":"6917.890","LAUNCH_DATE":"2022-08-19"},{"CENTER_NAME":"EARTH","APOAPSIS":"540.914","ELEMENT_SET_NO":"999","TLE_LINE1":"1 53533U 22101G   22317.73806789  .00001470  00000-0  11045-3 0  9994","GP_ID":"217695624","RA_OF_ASC_NODE":"114.7731","REV_AT_EPOCH":"1320","ARG_OF_PERICENTER":"50.3728","EPOCH":"2022-11-13T17:42:49.065696","OBJECT_NAME":"STARLINK-4493","RCS_SIZE":"LARGE","MEAN_ANOMALY":"309.7414","OBJECT_TYPE":"PAYLOAD","COUNTRY_CODE":"US","REF_FRAME":"TEME","FILE":"3653957","CLASSIFICATION_TYPE":"U","SITE":"AFETR","MEAN_MOTION":"15.08844510","OBJECT_ID":"2022-101G","DECAY_DATE":null,"MEAN_ELEMENT_THEORY":"SGP4","NORAD_CAT_ID":"53533","TIME_SYSTEM":"UTC","TLE_LINE2":"2 53533  53.2185 114.7731 0001709  50.3728 309.7414 15.08844510 13201","BSTAR":"0.00011045000000","MEAN_MOTION_DOT":"0.00001470","MEAN_MOTION_DDOT":"0.0000000000000","PERIAPSIS":"538.549","PERIOD":"95.437","EPHEMERIS_TYPE":"0","ECCENTRICITY":"0.00017090","INCLINATION":"53.2185","SEMIMAJOR_AXIS":"6917.867","LAUNCH_DATE":"2022-08-19"},{"APOAPSIS":"540.959","CENTER_NAME":"EARTH","ELEMENT_SET_NO":"999","GP_ID":"217695456","RA_OF_ASC_NODE":"114.8252","TLE_LINE1":"1 53534U 22101H   22317.72606614  .00000314  00000-0  37851-4 0  9999","REV_AT_EPOCH":"1320","ARG_OF_PERICENTER":"50.3590","OBJECT_NAME":"STARLINK-4488","EPOCH":"2022-11-13T17:25:32.114496","OBJECT_TYPE":"PAYLOAD","MEAN_ANOMALY":"309.7559","RCS_SIZE":"LARGE","COUNTRY_CODE":"US","FILE":"3653957","REF_FRAME":"TEME","CLASSIFICATION_TYPE":"U","MEAN_MOTION":"15.08846186","SITE":"AFETR","OBJECT_ID":"2022-101H","DECAY_DATE":null,"NORAD_CAT_ID":"53534","TIME_SYSTEM":"UTC","MEAN_ELEMENT_THEORY":"SGP4","BSTAR":"0.00003785100000","TLE_LINE2":"2 53534  53.2189 114.8252 0001781  50.3590 309.7559 15.08846186 13203","MEAN_MOTION_DOT":"0.00000314","PERIAPSIS":"538.494","MEAN_MOTION_DDOT":"0.0000000000000","PERIOD":"95.437","EPHEMERIS_TYPE":"0","ECCENTRICITY":"0.00017810","INCLINATION":"53.2189","SEMIMAJOR_AXIS":"6917.861","LAUNCH_DATE":"2022-08-19"},{"OBJECT_TYPE":"PAYLOAD","MEAN_ANOMALY":"305.0914","RCS_SIZE":"LARGE","OBJECT_NAME":"STARLINK-4138","EPOCH":"2022-11-13T17:36:08.225856","COUNTRY_CODE":"US","FILE":"3653957","REF_FRAME":"TEME","ELEMENT_SET_NO":"999","APOAPSIS":"540.921","CENTER_NAME":"EARTH","ARG_OF_PERICENTER":"55.0239","RA_OF_ASC_NODE":"114.7918","GP_ID":"217694702","TLE_LINE1":"1 53535U 22101J   22317.73342854  .00000748  00000-0  65105-4 0  9998","REV_AT_EPOCH":"1320","PERIOD":"95.437","MEAN_MOTION_DOT":"0.00000748","PERIAPSIS":"538.542","MEAN_MOTION_DDOT":"0.0000000000000","INCLINATION":"53.2187","ECCENTRICITY":"0.00017190","SEMIMAJOR_AXIS":"6917.867","LAUNCH_DATE":"2022-08-19","EPHEMERIS_TYPE":"0","MEAN_MOTION":"15.08844530","SITE":"AFETR","OBJECT_ID":"2022-101J","CLASSIFICATION_TYPE":"U","NORAD_CAT_ID":"53535","TIME_SYSTEM":"UTC","MEAN_ELEMENT_THEORY":"SGP4","BSTAR":"0.00006510500000","TLE_LINE2":"2 53535  53.2187 114.7918 0001719  55.0239 305.0914 15.08844530 13208","DECAY_DATE":null}];
